start=new Date('2022-05-11T00:00:00.000Z').valueOf();
sats=[{"ECCENTRICITY":"0.00019870","BSTAR":"-0.00000637030000","INCLINATION":"53.0547","EPHEMERIS_TYPE":"0","REV_AT_EPOCH":"12926","LAUNCH_DATE":"2020-01-07","RA_OF_ASC_NODE":"126.8908","OBJECT_NAME":"STARLINK-1100","MEAN_MOTION_DOT":"-0.00000377","OBJECT_ID":"2020-001AF","OBJECT_TYPE":"PAYLOAD","MEAN_ELEMENT_THEORY":"SGP4","CLASSIFICATION_TYPE":"U","CENTER_NAME":"EARTH","ARG_OF_PERICENTER":"54.2030","FILE":"3439673","EPOCH":"2022-05-10T17:00:17.594208","MEAN_MOTION":"15.06390592","REF_FRAME":"TEME","GP_ID":"203224782","MEAN_ANOMALY":"305.9144","APOAPSIS":"548.618","ELEMENT_SET_NO":"999","NORAD_CAT_ID":"44943","PERIOD":"95.593","SEMIMAJOR_AXIS":"6925.377","TLE_LINE1":"1 44943U 20001AF  22130.70853697 -.00000377  00000-0 -63703-5 0  9993","DECAY_DATE":null,"TIME_SYSTEM":"UTC","TLE_LINE2":"2 44943  53.0547 126.8908 0001987  54.2030 305.9144 15.06390592129269","SITE":"AFETR","COUNTRY_CODE":"US","PERIAPSIS":"545.866","MEAN_MOTION_DDOT":"0.0000000000000","RCS_SIZE":"LARGE"},{"INCLINATION":"53.0546","EPHEMERIS_TYPE":"0","REV_AT_EPOCH":"12926","OBJECT_NAME":"STARLINK-1108","LAUNCH_DATE":"2020-01-07","RA_OF_ASC_NODE":"126.9718","ECCENTRICITY":"0.00020560","BSTAR":"0.00012531000000","ARG_OF_PERICENTER":"48.1034","FILE":"3439673","MEAN_MOTION":"15.06400554","EPOCH":"2022-05-10T16:33:44.282304","REF_FRAME":"TEME","GP_ID":"203225032","MEAN_MOTION_DOT":"0.00001585","OBJECT_ID":"2020-001AG","OBJECT_TYPE":"PAYLOAD","MEAN_ELEMENT_THEORY":"SGP4","CLASSIFICATION_TYPE":"U","CENTER_NAME":"EARTH","PERIOD":"95.592","NORAD_CAT_ID":"44944","SEMIMAJOR_AXIS":"6925.347","TLE_LINE1":"1 44944U 20001AG  22130.69009586  .00001585  00000-0  12531-3 0  9993","DECAY_DATE":null,"MEAN_ANOMALY":"312.0130","APOAPSIS":"548.636","ELEMENT_SET_NO":"999","MEAN_MOTION_DDOT":"0.0000000000000","PERIAPSIS":"545.788","RCS_SIZE":"LARGE","TLE_LINE2":"2 44944  53.0546 126.9718 0002056  48.1034 312.0130 15.06400554129267","TIME_SYSTEM":"UTC","SITE":"AFETR","COUNTRY_CODE":"US"},{"BSTAR":"0.00004199700000","ECCENTRICITY":"0.00023320","REV_AT_EPOCH":"12926","EPHEMERIS_TYPE":"0","LAUNCH_DATE":"2020-01-07","RA_OF_ASC_NODE":"126.8312","OBJECT_NAME":"STARLINK-1109","INCLINATION":"53.0542","CENTER_NAME":"EARTH","MEAN_MOTION_DOT":"0.00000344","CLASSIFICATION_TYPE":"U","OBJECT_TYPE":"PAYLOAD","MEAN_ELEMENT_THEORY":"SGP4","OBJECT_ID":"2020-001AH","MEAN_MOTION":"15.06395614","EPOCH":"2022-05-10T17:16:13.742400","FILE":"3439673","GP_ID":"203225784","REF_FRAME":"TEME","ARG_OF_PERICENTER":"42.1064","APOAPSIS":"548.842","ELEMENT_SET_NO":"999","MEAN_ANOMALY":"318.0104","TLE_LINE1":"1 44945U 20001AH  22130.71960350  .00000344  00000-0  41997-4 0  9993","SEMIMAJOR_AXIS":"6925.362","PERIOD":"95.592","NORAD_CAT_ID":"44945","DECAY_DATE":null,"COUNTRY_CODE":"US","SITE":"AFETR","TIME_SYSTEM":"UTC","TLE_LINE2":"2 44945  53.0542 126.8312 0002332  42.1064 318.0104 15.06395614129264","RCS_SIZE":"LARGE","MEAN_MOTION_DDOT":"0.0000000000000","PERIAPSIS":"545.612"},{"ARG_OF_PERICENTER":"66.6459","FILE":"3439131","EPOCH":"2022-05-10T09:15:38.346336","MEAN_MOTION":"15.12782992","REF_FRAME":"TEME","GP_ID":"203187351","MEAN_MOTION_DOT":"0.00006314","MEAN_ELEMENT_THEORY":"SGP4","OBJECT_TYPE":"PAYLOAD","OBJECT_ID":"2020-001AJ","CLASSIFICATION_TYPE":"U","CENTER_NAME":"EARTH","INCLINATION":"53.0048","EPHEMERIS_TYPE":"0","REV_AT_EPOCH":"12932","LAUNCH_DATE":"2020-01-07","OBJECT_NAME":"STARLINK-1110","RA_OF_ASC_NODE":"118.5265","ECCENTRICITY":"0.00026350","BSTAR":"0.00037226000000","MEAN_MOTION_DDOT":"0.0000000000000","PERIAPSIS":"525.900","RCS_SIZE":"LARGE","TLE_LINE2":"2 44946  53.0048 118.5265 0002635  66.6459 293.4809 15.12782992129327","TIME_SYSTEM":"UTC","SITE":"AFETR","COUNTRY_CODE":"US","NORAD_CAT_ID":"44946","PERIOD":"95.189","TLE_LINE1":"1 44946U 20001AJ  22130.38586049  .00006314  00000-0  37226-3 0  9998","SEMIMAJOR_AXIS":"6905.854","DECAY_DATE":null,"MEAN_ANOMALY":"293.4809","ELEMENT_SET_NO":"999","APOAPSIS":"529.539"},{"BSTAR":"0.00005704400000","ECCENTRICITY":"0.00022960","OBJECT_NAME":"STARLINK-1116","LAUNCH_DATE":"2020-01-07","RA_OF_ASC_NODE":"128.8138","REV_AT_EPOCH":"12920","EPHEMERIS_TYPE":"0","INCLINATION":"53.0542","CENTER_NAME":"EARTH","CLASSIFICATION_TYPE":"U","OBJECT_TYPE":"PAYLOAD","OBJECT_ID":"2020-001AK","MEAN_ELEMENT_THEORY":"SGP4","MEAN_MOTION_DOT":"0.00000568","GP_ID":"203187601","REF_FRAME":"TEME","MEAN_MOTION":"15.06399323","EPOCH":"2022-05-10T06:39:16.582464","FILE":"3439131","ARG_OF_PERICENTER":"48.3116","APOAPSIS":"548.806","ELEMENT_SET_NO":"999","MEAN_ANOMALY":"311.8069","DECAY_DATE":null,"TLE_LINE1":"1 44947U 20001AK  22130.27727526  .00000568  00000-0  57044-4 0  9990","SEMIMAJOR_AXIS":"6925.351","NORAD_CAT_ID":"44947","PERIOD":"95.592","COUNTRY_CODE":"US","SITE":"AFETR","TIME_SYSTEM":"UTC","TLE_LINE2":"2 44947  53.0542 128.8138 0002296  48.3116 311.8069 15.06399323129205","RCS_SIZE":"LARGE","MEAN_MOTION_DDOT":"0.0000000000000","PERIAPSIS":"545.626"},{"RCS_SIZE":"LARGE","MEAN_MOTION_DDOT":"0.0000000000000","PERIAPSIS":"545.830","COUNTRY_CODE":"US","SITE":"AFETR","TIME_SYSTEM":"UTC","TLE_LINE2":"2 44949  53.0537 126.9212 0001998  54.8661 305.2515 15.06399844129265","TLE_LINE1":"1 44949U 20001AM  22130.70115904 -.00000365  00000-0 -55701-5 0  9997","SEMIMAJOR_AXIS":"6925.349","PERIOD":"95.592","NORAD_CAT_ID":"44949","DECAY_DATE":null,"APOAPSIS":"548.598","ELEMENT_SET_NO":"999","MEAN_ANOMALY":"305.2515","MEAN_MOTION":"15.06399844","EPOCH":"2022-05-10T16:49:40.141056","FILE":"3439673","GP_ID":"203224533","REF_FRAME":"TEME","ARG_OF_PERICENTER":"54.8661","CENTER_NAME":"EARTH","MEAN_MOTION_DOT":"-0.00000365","CLASSIFICATION_TYPE":"U","OBJECT_TYPE":"PAYLOAD","MEAN_ELEMENT_THEORY":"SGP4","OBJECT_ID":"2020-001AM","REV_AT_EPOCH":"12926","EPHEMERIS_TYPE":"0","RA_OF_ASC_NODE":"126.9212","LAUNCH_DATE":"2020-01-07","OBJECT_NAME":"STARLINK-1122","INCLINATION":"53.0537","BSTAR":"-0.00000557010000","ECCENTRICITY":"0.00019980"},{"DECAY_DATE":null,"PERIOD":"95.461","NORAD_CAT_ID":"44950","SEMIMAJOR_AXIS":"6919.004","TLE_LINE1":"1 44950U 20001AN  22130.67554494  .00012582  00000-0  81521-3 0  9995","ELEMENT_SET_NO":"999","APOAPSIS":"542.587","MEAN_ANOMALY":"296.3540","RCS_SIZE":"LARGE","PERIAPSIS":"539.151","MEAN_MOTION_DDOT":"0.0000000000000","SITE":"AFETR","COUNTRY_CODE":"US","TIME_SYSTEM":"UTC","TLE_LINE2":"2 44950  53.0515 126.6026 0002483  63.7705 296.3540 15.08472496129266","LAUNCH_DATE":"2020-01-07","OBJECT_NAME":"STARLINK-1125","RA_OF_ASC_NODE":"126.6026","EPHEMERIS_TYPE":"0","REV_AT_EPOCH":"12926","INCLINATION":"53.0515","BSTAR":"0.00081521000000","ECCENTRICITY":"0.00024830","REF_FRAME":"TEME","GP_ID":"203225285","FILE":"3439673","EPOCH":"2022-05-10T16:12:47.082816","MEAN_MOTION":"15.08472496","ARG_OF_PERICENTER":"63.7705","CENTER_NAME":"EARTH","OBJECT_ID":"2020-001AN","OBJECT_TYPE":"PAYLOAD","MEAN_ELEMENT_THEORY":"SGP4","CLASSIFICATION_TYPE":"U","MEAN_MOTION_DOT":"0.00012582"},{"REF_FRAME":"TEME","GP_ID":"203226034","FILE":"3439673","MEAN_MOTION":"15.12450818","EPOCH":"2022-05-10T16:07:53.021280","ARG_OF_PERICENTER":"68.4058","CENTER_NAME":"EARTH","OBJECT_TYPE":"PAYLOAD","MEAN_ELEMENT_THEORY":"SGP4","OBJECT_ID":"2020-001AP","CLASSIFICATION_TYPE":"U","MEAN_MOTION_DOT":"0.00005085","LAUNCH_DATE":"2020-01-07","RA_OF_ASC_NODE":"117.9974","OBJECT_NAME":"STARLINK-1126","EPHEMERIS_TYPE":"0","REV_AT_EPOCH":"13064","INCLINATION":"53.0036","BSTAR":"0.00030589000000","ECCENTRICITY":"0.00026080","RCS_SIZE":"LARGE","PERIAPSIS":"526.929","MEAN_MOTION_DDOT":"0.0000000000000","SITE":"AFETR","COUNTRY_CODE":"US","TLE_LINE2":"2 44951  53.0036 117.9974 0002608  68.4058 291.7210 15.12450818130648","TIME_SYSTEM":"UTC","DECAY_DATE":null,"PERIOD":"95.210","NORAD_CAT_ID":"44951","TLE_LINE1":"1 44951U 20001AP  22130.67214145  .00005085  00000-0  30589-3 0  9990","SEMIMAJOR_AXIS":"6906.866","APOAPSIS":"530.532","ELEMENT_SET_NO":"999","MEAN_ANOMALY":"291.7210"},{"ARG_OF_PERICENTER":"39.6071","GP_ID":"203224783","REF_FRAME":"TEME","EPOCH":"2022-05-10T16:23:08.227104","MEAN_MOTION":"15.06398953","FILE":"3439673","CLASSIFICATION_TYPE":"U","OBJECT_TYPE":"PAYLOAD","MEAN_ELEMENT_THEORY":"SGP4","OBJECT_ID":"2020-001AQ","MEAN_MOTION_DOT":"0.00000169","CENTER_NAME":"EARTH","INCLINATION":"53.0544","LAUNCH_DATE":"2020-01-07","RA_OF_ASC_NODE":"127.0055","OBJECT_NAME":"STARLINK-1117","REV_AT_EPOCH":"12926","EPHEMERIS_TYPE":"0","ECCENTRICITY":"0.00024740","BSTAR":"0.00003028000000","MEAN_MOTION_DDOT":"0.0000000000000","PERIAPSIS":"545.503","RCS_SIZE":"LARGE","TIME_SYSTEM":"UTC","TLE_LINE2":"2 44952  53.0544 127.0055 0002474  39.6071 320.5098 15.06398953129266","COUNTRY_CODE":"US","SITE":"AFETR","DECAY_DATE":null,"TLE_LINE1":"1 44952U 20001AQ  22130.68273411  .00000169  00000-0  30280-4 0  9990","SEMIMAJOR_AXIS":"6925.352","PERIOD":"95.592","NORAD_CAT_ID":"44952","MEAN_ANOMALY":"320.5098","APOAPSIS":"548.930","ELEMENT_SET_NO":"999"},{"LAUNCH_DATE":"2020-01-07","RA_OF_ASC_NODE":"126.9141","OBJECT_NAME":"STARLINK-1124","REV_AT_EPOCH":"13055","EPHEMERIS_TYPE":"0","INCLINATION":"53.0536","BSTAR":"0.00012822000000","ECCENTRICITY":"0.00016240","GP_ID":"203225033","REF_FRAME":"TEME","MEAN_MOTION":"15.06403828","EPOCH":"2022-05-10T16:48:18.359136","FILE":"3439673","ARG_OF_PERICENTER":"53.2092","CENTER_NAME":"EARTH","CLASSIFICATION_TYPE":"U","OBJECT_TYPE":"PAYLOAD","MEAN_ELEMENT_THEORY":"SGP4","OBJECT_ID":"2020-001AR","MEAN_MOTION_DOT":"0.00001629","DECAY_DATE":null,"SEMIMAJOR_AXIS":"6925.337","TLE_LINE1":"1 44953U 20001AR  22130.70021249  .00001629  00000-0  12822-3 0  9997","PERIOD":"95.592","NORAD_CAT_ID":"44953","APOAPSIS":"548.327","ELEMENT_SET_NO":"999","MEAN_ANOMALY":"306.9045","RCS_SIZE":"LARGE","PERIAPSIS":"546.077","MEAN_MOTION_DDOT":"0.0000000000000","COUNTRY_CODE":"US","SITE":"AFETR","TIME_SYSTEM":"UTC","TLE_LINE2":"2 44953  53.0536 126.9141 0001624  53.2092 306.9045 15.06403828130555"}];
